COMMENT,ORIGINATOR,NORAD_CAT_ID,OBJECT_NAME,OBJECT_TYPE,CLASSIFICATION_TYPE,INTLDES,EPOCH,EPOCH_MICROSECONDS,MEAN_MOTION,ECCENTRICITY,INCLINATION,RA_OF_ASC_NODE,ARG_OF_PERICENTER,MEAN_ANOMALY,EPHEMERIS_TYPE,ELEMENT_SET_NO,REV_AT_EPOCH,BSTAR,MEAN_MOTION_DOT,MEAN_MOTION_DDOT,FILE,TLE_LINE0,TLE_LINE1,TLE_LINE2,OBJECT_ID,OBJECT_NUMBER,SEMIMAJOR_AXIS,PERIOD,APOGEE,PERIGEE
"GENERATED VIA SPACETRACK.ORG API","JSPOC","5683","COSMOS 465","PAYLOAD","U","71111A","2016-01-10 21:29:22","521984","13.74145193","0.0027291","74.0273","147.5372","11.275","134.7446","0","999","20992","-7.9396e-07","-2.3e-07","0","1979034","0 COSMOS 465","1  5683U 71111A   16010.89539956 -.00000023 +00000-0 -79396-6 0  9992","2  5683 074.0273 147.5372 0027291 011.2750 134.7446 13.74145193209922","1971-111A","5683","7362.863","104.792","1004.822","964.634"
"GENERATED VIA SPACETRACK.ORG API","JSPOC","2119","OPS 1117 (TRANSIT 12)","PAYLOAD","U","66024A","2016-01-10 21:29:25","783584","13.74384503","0.0146281","89.7019","215.4839","15.6955","344.8673","0","999","49169","8.4835e-05","9.7e-07","0","1979034","0 OPS 1117 (TRANSIT 12)","1  2119U 66024A   16010.89543731 +.00000097 +00000-0 +84835-4 0  9997","2  2119 089.7019 215.4839 0146281 015.6955 344.8673 13.74384503491696","1966-024A","2119","7362.008","104.774","1091.566","876.181"
"GENERATED VIA SPACETRACK.ORG API","JSPOC","31121","SAUDICOMSAT 6","PAYLOAD","U","07012E","2016-01-10 21:29:37","357728","14.58207238","0.0076217","97.941","341.1709","324.6255","34.9901","0","999","46446","6.4825e-05","2.63e-06","0","1979034","0 SAUDICOMSAT 6","1 31121U 07012E   16010.89557127 +.00000263 +00000-0 +64825-4 0  9990","2 31121 097.9410 341.1709 0076217 324.6255 034.9901 14.58207238464465","2007-012E","31121","7077.105","98.751","752.910","645.031"
"GENERATED VIA SPACETRACK.ORG API","JSPOC","15474","COSMOS 1622","PAYLOAD","U","85003F","2016-01-10 21:29:38","124960","12.63792735","0.000879","82.6087","352.9252","190.0487","196.0117","0","999","42928","-8.1209e-05","-4e-08","0","1979034","0 COSMOS 1622","1 15474U 85003F   16010.89558015 -.00000004 +00000-0 -81209-4 0  9996","2 15474 082.6087 352.9252 0008790 190.0487 196.0117 12.63792735429280","1985-003F","15474","7785.465","113.942","1414.174","1400.487"
"GENERATED VIA SPACETRACK.ORG API","JSPOC","38015","CZ-3B R/B","ROCKET BODY","U","11077B","2016-01-10 21:29:41","163648","2.962079","0.6794091","23.6124","94.2575","141.8555","294.5224","0","999","3486","0.0010534","0.00027959","0","1978745","0 CZ-3B R/B","1 38015U 11077B   16010.89561532  .00027959 -55299-6  10534-2 0  9994","2 38015  23.6124  94.2575 6794091 141.8555 294.5224  2.96207900 34868","2011-077B","38015","20480.351","486.145","28016.754","187.679"
"GENERATED VIA SPACETRACK.ORG API","JSPOC","21230","COSMOS 2142","PAYLOAD","U","91029A","2016-01-10 21:29:45","682368","13.7308646","0.0038121","82.9558","167.5526","10.0356","143.7664","0","999","23942","1.6992e-05","3.1e-07","0","1979034","0 COSMOS 2142","1 21230U 91029A   16010.89566762 +.00000031 +00000-0 +16992-4 0  9991","2 21230 082.9558 167.5526 0038121 010.0356 143.7664 13.73086460239428","1991-029A","21230","7366.647","104.873","1016.595","960.430"
"GENERATED VIA SPACETRACK.ORG API","JSPOC","27387","ARIANE 5 R/B","ROCKET BODY","U","02009B","2016-01-10 21:29:49","687008","14.3587976","0.003126","98.3951","325.9165","258.5806","101.1869","0","999","72640","2.0245e-05","1.6e-07","0","1979034","0 ARIANE 5 R/B","1 27387U 02009B   16010.89571397 +.00000016 +00000-0 +20245-4 0  9999","2 27387 098.3951 325.9165 0031260 258.5806 101.1869 14.35879760726406","2002-009B","27387","7150.281","100.286","794.498","749.794"
"GENERATED VIA SPACETRACK.ORG API","JSPOC","31127","SAUDICOMSAT 4","PAYLOAD","U","07012L","2016-01-10 21:29:50","937216","14.59913683","0.0067162","97.9078","346.0372","296.3513","63.0801","0","999","46505","5.6963e-05","2.34e-06","0","1978655","0 SAUDICOMSAT 4","1 31127U 07012L   16010.89572844  .00000234  00000-0  56963-4 0  9991","2 31127  97.9078 346.0372 0067162 296.3513  63.0801 14.59913683465059","2007-012L","31127","7071.589","98.635","740.948","645.960"
"GENERATED VIA SPACETRACK.ORG API","JSPOC","16792","SL-14 R/B","ROCKET BODY","U","86046B","2016-01-10 21:29:50","933760","14.83021109","0.0023382","82.4837","334.7471","213.0266","175.907","0","999","57623","2.0014e-05","1.87e-06","0","1979034","0 SL-14 R/B","1 16792U 86046B   16010.89572840 +.00000187 +00000-0 +20014-4 0  9997","2 16792 082.4837 334.7471 0023382 213.0266 175.9070 14.83021109576237","1986-046B","16792","6997.941","97.099","636.168","603.443"
"GENERATED VIA SPACETRACK.ORG API","JSPOC","15595","GEOSAT","PAYLOAD","U","85021A","2016-01-10 21:29:51","578304","14.37922873","0.0002736","108.0516","90.0663","253.5476","234.0717","0","999","61489","4.2308e-05","-8e-08","0","1979034","0 GEOSAT","1 15595U 85021A   16010.89573586 -.00000008 +00000-0 +42308-4 0  9990","2 15595 108.0516 090.0663 0002736 253.5476 234.0717 14.37922873614890","1985-021A","15595","7143.506","100.144","767.326","763.417"
"GENERATED VIA SPACETRACK.ORG API","JSPOC","1502","SCOUT B R/B","ROCKET BODY","U","65063B","2016-01-10 21:30:04","224672","11.78530243","0.0789837","69.2303","254.4413","315.1905","172.0184","0","999","16941","0.00015267","-1.2e-07","0","1979034","0 SCOUT B R/B","1  1502U 65063B   16010.89588223 -.00000012 +00000-0 +15267-3 0  9999","2  1502 069.2303 254.4413 0789837 315.1905 172.0184 11.78530243169410","1965-063B","1502","8156.578","122.186","2422.680","1134.206"
"GENERATED VIA SPACETRACK.ORG API","JSPOC","19256","COSMOS 1954","PAYLOAD","U","88053A","2016-01-10 21:30:09","430272","14.33876046","0.0015427","74.0459","172.6757","41.4396","318.7923","0","999","44076","2.4908e-05","4.3e-07","0","1979034","0 COSMOS 1954","1 19256U 88053A   16010.89594248 +.00000043 +00000-0 +24908-4 0  9998","2 19256 074.0459 172.6757 0015427 041.4396 318.7923 14.33876046440761","1988-053A","19256","7156.940","100.427","789.846","767.764"
"GENERATED VIA SPACETRACK.ORG API","JSPOC","29107","CLOUDSAT","PAYLOAD","U","06016A","2016-01-10 21:30:14","938272","14.57106496","8.15e-05","98.2183","316.3789","118.1845","241.9436","0","999","51606","4.9199e-05","1.76e-06","0","1979034","0 CLOUDSAT","1 29107U 06016A   16010.89600623 +.00000176 +00000-0 +49199-4 0  9994","2 29107 098.2183 316.3789 0000815 118.1845 241.9436 14.57106496516061","2006-016A","29107","7080.669","98.825","703.111","701.957"
"GENERATED VIA SPACETRACK.ORG API","JSPOC","10089","SL-6 R/B(2)","ROCKET BODY","U","77047D","2016-01-10 21:30:15","769440","1.99324828","0.6229404","68.2816","14.1691","15.9776","357.098","0","999","18450","0","-6.7e-06","0","1979034","0 SL-6 R/B(2)","1 10089U 77047D   16010.89601585 -.00000670 +00000-0 +00000-0 0  9997","2 10089 068.2816 014.1691 6229404 015.9776 357.0980 01.99324828184501","1977-047D","10089","26670.280","722.438","36906.139","3678.150"
"GENERATED VIA SPACETRACK.ORG API","JSPOC","28220","TANSUO 1","PAYLOAD","U","04012A","2016-01-10 21:30:17","414496","14.98206563","0.0012281","97.6269","330.0011","102.8752","257.3843","0","999","63791","0.00018017","2.084e-05","0","1979034","0 TANSUO 1","1 28220U 04012A   16010.89603489 +.00002084 +00000-0 +18017-3 0  9990","2 28220 097.6269 330.0011 0012281 102.8752 257.3843 14.98206563637914","2004-012A","28220","6950.574","96.114","580.975","563.903"
"GENERATED VIA SPACETRACK.ORG API","JSPOC","7267","COSMOS 643","PAYLOAD","U","74024C","2016-01-10 21:30:20","88576","12.61531458","0.0082099","74.0174","254.382","132.3331","355.7434","0","999","92111","0.00019351","1.9e-07","0","1979034","0 COSMOS 643","1  7267U 74024C   16010.89606584 +.00000019 +00000-0 +19351-3 0  9995","2  7267 074.0174 254.3820 0082099 132.3331 355.7434 12.61531458921116","1974-024C","7267","7794.766","114.146","1480.625","1352.637"
"GENERATED VIA SPACETRACK.ORG API","JSPOC","15335","SL-12 R/B(AUX MOTOR)","ROCKET BODY","U","84106C","2016-01-10 21:30:20","110176","14.22007338","0.0020264","66.5515","169.5599","298.3851","222.7556","0","999","62225","-2.2241e-05","-1.35e-06","0","1979034","0 SL-12 R/B(AUX MOTOR)","1 15335U 84106C   16010.89606609 -.00000135 +00000-0 -22241-4 0  9994","2 15335 066.5515 169.5599 0020264 298.3851 222.7556 14.22007338622257","1984-106C","15335","7196.709","101.265","833.157","803.990"
"GENERATED VIA SPACETRACK.ORG API","JSPOC","163","MIDAS 3","PAYLOAD","U","61018A","2016-01-10 21:30:23","395968","8.9183291","0.0100139","91.173","35.3127","17.1991","343.2238","0","999","77430","0.00080638","3e-08","0","1979034","0 MIDAS 3","1   163U 61018A   16010.89610412 +.00000003 +00000-0 +80638-3 0  9996","2   163 091.1730 035.3127 0100139 017.1991 343.2238 08.91832910774303","1961-018A","163","9822.292","161.465","3542.516","3345.797"
"GENERATED VIA SPACETRACK.ORG API","JSPOC","29517","CZ-3 R/B","ROCKET BODY","U","06048B","2016-01-10 21:30:25","924896","6.40335658","0.4634524","28.4632","245.0639","14.1239","355.3941","0","999","13262","0.0011341","0.00086513","0","1979034","0 CZ-3 R/B","1 29517U 06048B   16010.89613339 +.00086513 -13853-6 +11341-2 0  9994","2 29517 028.4632 245.0639 4634524 014.1239 355.3941 06.40335658132622","2006-048B","29517","12249.829","224.882","11548.907","194.481"
"GENERATED VIA SPACETRACK.ORG API","JSPOC","7337","COSMOS 660","PAYLOAD","U","74044A","2016-01-10 21:30:26","138304","14.35185646","0.0559628","82.946","211.4921","115.4014","250.6186","0","999","9156","0.00013327","2.573e-05","0","1979034","0 COSMOS 660","1  7337U 74044A   16010.89613586 +.00002573 +00000-0 +13327-3 0  9999","2  7337 082.9460 211.4921 0559628 115.4014 250.6186 14.35185646091564","1974-044A","7337","7152.586","100.335","1174.730","374.172"
